[{"OBJECT_NAME":"STARLINK-6221","OBJECT_ID":"2023-064AN","EPOCH":"2026-03-09T13:43:58.315008","MEAN_MOTION":14.98334735,"ECCENTRICITY":0.0003403,"INCLINATION":69.999,"RA_OF_ASC_NODE":124.6773,"ARG_OF_PERICENTER":267.1667,"MEAN_ANOMALY":92.9103,"EPHEMERIS_TYPE":0,"CLASSIFICATION_TYPE":"U","NORAD_CAT_ID":56484,"ELEMENT_SET_NO":999,"REV_AT_EPOCH":15571,"BSTAR":4.6007e-5,"MEAN_MOTION_DOT":4.56e-6,"MEAN_MOTION_DDOT":0},{"OBJECT_NAME":"IRIDIUM 33 DEB","OBJECT_ID":"1997-051GB","EPOCH":"2026-03-09T18:44:19.060224","MEAN_MOTION":15.02189476,"ECCENTRICITY":0.0010038,"INCLINATION":86.3931,"RA_OF_ASC_NODE":331.664,"ARG_OF_PERICENTER":138.3098,"MEAN_ANOMALY":291.9123,"EPHEMERIS_TYPE":0,"CLASSIFICATION_TYPE":"U","NORAD_CAT_ID":34486,"ELEMENT_SET_NO":999,"REV_AT_EPOCH":90290,"BSTAR":0.0023709806,"MEAN_MOTION_DOT":0.00031372,"MEAN_MOTION_DDOT":0}]
